{
  "type": "FeatureCollection",
  "features": [
    {
      "type": "Feature",
      "properties": {
        "norad_id": 66534,
        "name": "STARLINK-35976",
        "group": "last-30-days",
        "lat": 41.02584523703197,
        "lon": -177.62857714263566,
        "alt_km": 339.0085049195395,
        "timestamp": "2025-12-02T17:49:10.800300+00:00",
        "meta_object_name": "STARLINK-35976",
        "meta_object_id": "2025-265U",
        "meta_epoch": "2025-12-02T12:00:05.998752",
        "meta_mean_motion": 15.75033306,
        "meta_eccentricity": 0.0001552,
        "meta_inclination": 42.9995,
        "meta_ra_of_asc_node": 114.8164,
        "meta_arg_of_pericenter": 256.6946,
        "meta_mean_anomaly": 241.4425,
        "meta_ephemeris_type": 0,
        "meta_classification_type": "U",
        "meta_norad_cat_id": 66534,
        "meta_element_set_no": 999,
        "meta_rev_at_epoch": 334,
        "meta_bstar": 9.5927e-05,
        "meta_mean_motion_dot": 0.00014279,
        "meta_mean_motion_ddot": 0,
        "tle_line1": "1 66534U 25265U   25336.50006943  .00014279  00000+0  95927-4 0  9998",
        "tle_line2": "2 66534  42.9995 114.8164 0001552 256.6946 241.4425 15.75033306  3345"
      },
      "geometry": {
        "type": "Point",
        "coordinates": [
          -177.62857714263566,
          41.02584523703197
        ]
      }
    },
    {
      "type": "Feature",
      "properties": {
        "norad_id": 66535,
        "name": "STARLINK-35514",
        "group": "last-30-days",
        "lat": 41.46906288201369,
        "lon": -175.14167868543404,
        "alt_km": 338.9062383521223,
        "timestamp": "2025-12-02T17:49:10.800310+00:00",
        "meta_object_name": "STARLINK-35514",
        "meta_object_id": "2025-265V",
        "meta_epoch": "2025-12-02T12:00:05.998752",
        "meta_mean_motion": 15.75071571,
        "meta_eccentricity": 0.000149,
        "meta_inclination": 42.9996,
        "meta_ra_of_asc_node": 114.811,
        "meta_arg_of_pericenter": 267.919,
        "meta_mean_anomaly": 232.1247,
        "meta_ephemeris_type": 0,
        "meta_classification_type": "U",
        "meta_norad_cat_id": 66535,
        "meta_element_set_no": 999,
        "meta_rev_at_epoch": 334,
        "meta_bstar": -0.00051576,
        "meta_mean_motion_dot": -0.00079077,
        "meta_mean_motion_ddot": 0,
        "tle_line1": "1 66535U 25265V   25336.50006943 -.00079077  00000+0 -51576-3 0  9999",
        "tle_line2": "2 66535  42.9996 114.8110 0001490 267.9190 232.1247 15.75071571  3340"
      },
      "geometry": {
        "type": "Point",
        "coordinates": [
          -175.14167868543404,
          41.46906288201369
        ]
      }
    },
    {
      "type": "Feature",
      "properties": {
        "norad_id": 66536,
        "name": "STARLINK-35640",
        "group": "last-30-days",
        "lat": 41.855706535825234,
        "lon": -172.63542187208918,
        "alt_km": 338.99981823025064,
        "timestamp": "2025-12-02T17:49:10.800320+00:00",
        "meta_object_name": "STARLINK-35640",
        "meta_object_id": "2025-265W",
        "meta_epoch": "2025-12-02T12:00:05.998752",
        "meta_mean_motion": 15.7504833,
        "meta_eccentricity": 0.0001769,
        "meta_inclination": 42.9996,
        "meta_ra_of_asc_node": 114.8066,
        "meta_arg_of_pericenter": 264.0356,
        "meta_mean_anomaly": 237.9256,
        "meta_ephemeris_type": 0,
        "meta_classification_type": "U",
        "meta_norad_cat_id": 66536,
        "meta_element_set_no": 999,
        "meta_rev_at_epoch": 333,
        "meta_bstar": -8.2906e-06,
        "meta_mean_motion_dot": -1.752e-05,
        "meta_mean_motion_ddot": 0,
        "tle_line1": "1 66536U 25265W   25336.50006943 -.00001752  00000+0 -82906-5 0  9998",
        "tle_line2": "2 66536  42.9996 114.8066 0001769 264.0356 237.9256 15.75048330  3331"
      },
      "geometry": {
        "type": "Point",
        "coordinates": [
          -172.63542187208918,
          41.855706535825234
        ]
      }
    },
    {
      "type": "Feature",
      "properties": {
        "norad_id": 66537,
        "name": "STARLINK-35582",
        "group": "last-30-days",
        "lat": 42.18804842843983,
        "lon": -170.09399936679802,
        "alt_km": 338.9800486807735,
        "timestamp": "2025-12-02T17:49:10.800332+00:00",
        "meta_object_name": "STARLINK-35582",
        "meta_object_id": "2025-265X",
        "meta_epoch": "2025-12-02T12:00:05.998752",
        "meta_mean_motion": 15.75043783,
        "meta_eccentricity": 0.000179,
        "meta_inclination": 42.9997,
        "meta_ra_of_asc_node": 114.8014,
        "meta_arg_of_pericenter": 262.9047,
        "meta_mean_anomaly": 240.9793,
        "meta_ephemeris_type": 0,
        "meta_classification_type": "U",
        "meta_norad_cat_id": 66537,
        "meta_element_set_no": 999,
        "meta_rev_at_epoch": 335,
        "meta_bstar": 1.7431e-06,
        "meta_mean_motion_dot": -2.1e-06,
        "meta_mean_motion_ddot": 0,
        "tle_line1": "1 66537U 25265X   25336.50006943 -.00000210  00000+0  17431-5 0  9997",
        "tle_line2": "2 66537  42.9997 114.8014 0001790 262.9047 240.9793 15.75043783  3353"
      },
      "geometry": {
        "type": "Point",
        "coordinates": [
          -170.09399936679802,
          42.18804842843983
        ]
      }
    },
    {
      "type": "Feature",
      "properties": {
        "norad_id": 66538,
        "name": "STARLINK-35577",
        "group": "last-30-days",
        "lat": 42.46315507051912,
        "lon": -167.52909676051203,
        "alt_km": 338.6376946035007,
        "timestamp": "2025-12-02T17:49:10.800342+00:00",
        "meta_object_name": "STARLINK-35577",
        "meta_object_id": "2025-265Y",
        "meta_epoch": "2025-12-02T12:00:05.998752",
        "meta_mean_motion": 15.75025098,
        "meta_eccentricity": 0.000139,
        "meta_inclination": 42.9996,
        "meta_ra_of_asc_node": 114.7967,
        "meta_arg_of_pericenter": 273.043,
        "meta_mean_anomaly": 232.7631,
        "meta_ephemeris_type": 0,
        "meta_classification_type": "U",
        "meta_norad_cat_id": 66538,
        "meta_element_set_no": 999,
        "meta_rev_at_epoch": 335,
        "meta_bstar": 0.00028497,
        "meta_mean_motion_dot": 0.00043494,
        "meta_mean_motion_ddot": 0,
        "tle_line1": "1 66538U 25265Y   25336.50006943  .00043494  00000+0  28497-3 0  9990",
        "tle_line2": "2 66538  42.9996 114.7967 0001390 273.0430 232.7631 15.75025098  3353"
      },
      "geometry": {
        "type": "Point",
        "coordinates": [
          -167.52909676051203,
          42.46315507051912
        ]
      }
    },
    {
      "type": "Feature",
      "properties": {
        "norad_id": 66539,
        "name": "STARLINK-35697",
        "group": "last-30-days",
        "lat": 42.68045405831481,
        "lon": -164.9468963060718,
        "alt_km": 338.7119136468791,
        "timestamp": "2025-12-02T17:49:10.800354+00:00",
        "meta_object_name": "STARLINK-35697",
        "meta_object_id": "2025-265Z",
        "meta_epoch": "2025-12-02T12:00:05.998752",
        "meta_mean_motion": 15.75027516,
        "meta_eccentricity": 0.0001527,
        "meta_inclination": 42.9997,
        "meta_ra_of_asc_node": 114.791,
        "meta_arg_of_pericenter": 267.8812,
        "meta_mean_anomaly": 239.8406,
        "meta_ephemeris_type": 0,
        "meta_classification_type": "U",
        "meta_norad_cat_id": 66539,
        "meta_element_set_no": 999,
        "meta_rev_at_epoch": 335,
        "meta_bstar": 0.00026567,
        "meta_mean_motion_dot": 0.00040507,
        "meta_mean_motion_ddot": 0,
        "tle_line1": "1 66539U 25265Z   25336.50006943  .00040507  00000+0  26567-3 0  9999",
        "tle_line2": "2 66539  42.9997 114.7910 0001527 267.8812 239.8406 15.75027516  3355"
      },
      "geometry": {
        "type": "Point",
        "coordinates": [
          -164.9468963060718,
          42.68045405831481
        ]
      }
    },
    {
      "type": "Feature",
      "properties": {
        "norad_id": 66540,
        "name": "STARLINK-35818",
        "group": "last-30-days",
        "lat": 42.83848334635664,
        "lon": -162.35237225783192,
        "alt_km": 338.76974298197274,
        "timestamp": "2025-12-02T17:49:10.800367+00:00",
        "meta_object_name": "STARLINK-35818",
        "meta_object_id": "2025-265AA",
        "meta_epoch": "2025-12-02T12:00:05.998752",
        "meta_mean_motion": 15.75022142,
        "meta_eccentricity": 0.0001615,
        "meta_inclination": 42.9994,
        "meta_ra_of_asc_node": 114.7869,
        "meta_arg_of_pericenter": 255.6076,
        "meta_mean_anomaly": 254.0371,
        "meta_ephemeris_type": 0,
        "meta_classification_type": "U",
        "meta_norad_cat_id": 66540,
        "meta_element_set_no": 999,
        "meta_rev_at_epoch": 335,
        "meta_bstar": 0.00020233,
        "meta_mean_motion_dot": 0.00030692,
        "meta_mean_motion_ddot": 0,
        "tle_line1": "1 66540U 25265AA  25336.50006943  .00030692  00000+0  20233-3 0  9999",
        "tle_line2": "2 66540  42.9994 114.7869 0001615 255.6076 254.0371 15.75022142  3352"
      },
      "geometry": {
        "type": "Point",
        "coordinates": [
          -162.35237225783192,
          42.83848334635664
        ]
      }
    }
  ]
}